INTELSAT 21 (IS-21)     
1 38749U 12045A   26160.11649044 -.00000268  00000+0  00000+0 0  9992
2 38749   0.0258 279.4582 0001697 177.2975 144.6800  1.00267814 50441
INTELSAT 23 (IS-23)     
1 38867U 12057A   26160.18030708 -.00000268  00000+0  00000+0 0  9994
2 38867   0.0104 345.9313 0000467 117.0400 166.5175  1.00274773 49877
FM-6                    
1 39360U 13058A   26159.62959519  .00000003  00000+0  00000+0 0  9998
2 39360   0.0107  82.6412 0002771  69.5183 215.1325  1.00255605 45982
INTELSAT 30 (IS-30)     
1 40271U 14062A   26160.05834332 -.00000133  00000+0  00000+0 0  9996
2 40271   0.0204  38.2246 0000916 354.7145 150.4029  1.00268018  6713
DIRECTV 14              
1 40333U 14078B   26160.05357880 -.00000109  00000+0  00000+0 0  9993
2 40333   0.0091   1.3268 0000236 206.1301 330.0282  1.00271044 41966
DIRECTV 15              
1 40663U 15026A   26160.03626279 -.00000086  00000+0  00000+0 0  9996
2 40663   0.0035  71.5412 0000542 190.7091 265.3619  1.00272723 40388
SKY MEXICO-1            
1 40664U 15026B   26160.20013617 -.00000218  00000+0  00000+0 0  9999
2 40664   0.0142 294.5315 0002144 162.1434 154.1592  1.00271300 40375
INTELSAT 34 (IS-34)     
1 40874U 15039A   26160.18030708 -.00000268  00000+0  00000+0 0  9998
2 40874   0.0132 314.0764 0001283 253.2498  59.6457  1.00239167 39550
INTELSAT 31 (IS-31)     
1 41581U 16035A   26160.05834332 -.00000134  00000+0  00000+0 0  9994
2 41581   0.0213 258.7378 0000898 346.6638 298.0021  1.00270675 36603
INTELSAT 36 (IS-36)     
1 41747U 16053A   26160.14152433 -.00000007  00000+0  00000+0 0  9992
2 41747   0.0108 347.9197 0001908 348.5502  40.4980  1.00270520 35874
INTELSAT 32E (IS-32E)   
1 41945U 17007B   26160.08652258 -.00000252  00000+0  00000+0 0  9997
2 41945   0.0023 348.0424 0000672 336.8096 280.6014  1.00274840 34144
INTELSAT 35E (IS-35E)   
1 42818U 17041A   26160.18963291  .00000000  00000+0  00000+0 0  9998
2 42818   0.0200 353.1978 0001624  84.8725 213.2858  1.00269581 32736
INTELSAT 37E (IS-37E)   
1 42950U 17059A   26160.14003137  .00000000  00000+0  00000+0 0  9994
2 42950   0.0194 353.6646 0002303 107.7787 188.4837  1.00268430 31988
AZERSPACE 2 (IS-38)     
1 43632U 18074A   26160.06559578  .00000153  00000+0  00000+0 0  9995
2 43632   0.0015 359.7084 0001318  78.7354 247.7297  1.00271306 28366
HORIZONS-3E             
1 43633U 18074B   26159.87626094 -.00000014  00000+0  00000+0 0  9998
2 43633   0.0027 268.1339 0000918  15.6450  97.9331  1.00270722 28251
AT&T T-16               
1 44333U 19034A   26160.03669611 -.00000098  00000+0  00000+0 0  9997
2 44333   0.0211  62.4576 0000609 195.8851 271.4313  1.00268770 25554
INTELSAT 39 (IS-39)     
1 44476U 19049B   26160.00679632  .00000051  00000+0  00000+0 0  9990
2 44476   0.0162 310.4453 0001156  11.0959   0.2561  1.00266551 25045
GALAXY 30 (G-30)        
1 46114U 20056C   26160.10324477  .00000053  00000+0  00000+0 0  9998
2 46114   0.0165 310.7901 0002183 122.4086  96.4532  1.00273274 21219
GALAXY 33 (G-33)        
1 54026U 22128A   26160.10168477  .00000096  00000+0  00000+0 0  9994
2 54026   0.0128 309.1915 0001860 135.3365  76.5782  1.00271355 13664
GALAXY 34 (G-34)        
1 54027U 22128B   26159.95980211  .00000075  00000+0  00000+0 0  9991
2 54027   0.0154 329.7481 0001862 136.9348   7.2031  1.00274719 13834
GALAXY 31 (G-31)        
1 54243U 22153A   26160.10402477  .00000030  00000+0  00000+0 0  9992
2 54243   0.0146 269.0432 0001294 167.8099  97.0869  1.00272090  7055
GALAXY 32 (G-32)        
1 54244U 22153B   26159.96734213 -.00000158  00000+0  00000+0 0  9993
2 54244   0.0093 329.2269 0002186  68.0568 117.3143  1.00271040 13061
GALAXY 35 (G-35)        
1 54741U 22170A   26159.96690880 -.00000146  00000+0  00000+0 0  9992
2 54741   0.0311 101.0835 0002057 340.0049  71.2552  1.00271292 12818
GALAXY 36 (G-36)        
1 54742U 22170B   26160.11033711 -.00000168  00000+0  00000+0 0  9990
2 54742   0.0149 152.3398 0002665 290.7741 125.1041  1.00270915 12695
GALAXY 37 (G-37)        
1 57493U 23112A   26160.17390288  .00000065  00000+0  00000+0 0  9999
2 57493   0.0183 350.8590 0001919  88.8371 113.4683  1.00271768 10466
