OBJECT_NAME,OBJECT_ID,EPOCH,MEAN_MOTION,ECCENTRICITY,INCLINATION,RA_OF_ASC_NODE,ARG_OF_PERICENTER,MEAN_ANOMALY,EPHEMERIS_TYPE,CLASSIFICATION_TYPE,NORAD_CAT_ID,ELEMENT_SET_NO,REV_AT_EPOCH,BSTAR,MEAN_MOTION_DOT,MEAN_MOTION_DDOT
INTELSAT 21 (IS-21),2012-045A,2026-06-09T02:47:44.774016,1.00267814,.0001697,0.0258,279.4582,177.2975,144.6800,0,U,38749,999,5044,0,-.268E-5,0
INTELSAT 23 (IS-23),2012-057A,2026-06-09T04:19:38.531712,1.00274773,.0000467,0.0104,345.9313,117.0400,166.5175,0,U,38867,999,4987,0,-.268E-5,0
FM-6,2013-058A,2026-06-08T15:06:37.024416,1.00255605,.0002771,0.0107,82.6412,69.5183,215.1325,0,U,39360,999,4598,0,.3E-7,0
INTELSAT 30 (IS-30),2014-062A,2026-06-09T01:24:00.862848,1.00268018,.0000916,0.0204,38.2246,354.7145,150.4029,0,U,40271,999,671,0,-.133E-5,0
DIRECTV 14,2014-078B,2026-06-09T01:17:09.208320,1.00271044,.0000236,0.0091,1.3268,206.1301,330.0282,0,U,40333,999,4196,0,-.109E-5,0
DIRECTV 15,2015-026A,2026-06-09T00:52:13.105056,1.00272723,.0000542,0.0035,71.5412,190.7091,265.3619,0,U,40663,999,4038,0,-.86E-6,0
SKY MEXICO-1,2015-026B,2026-06-09T04:48:11.765088,1.00271300,.0002144,0.0142,294.5315,162.1434,154.1592,0,U,40664,999,4037,0,-.218E-5,0
INTELSAT 34 (IS-34),2015-039A,2026-06-09T04:19:38.531712,1.00239167,.0001283,0.0132,314.0764,253.2498,59.6457,0,U,40874,999,3955,0,-.268E-5,0
INTELSAT 31 (IS-31),2016-035A,2026-06-09T01:24:00.862848,1.00270675,.0000898,0.0213,258.7378,346.6638,298.0021,0,U,41581,999,3660,0,-.134E-5,0
INTELSAT 36 (IS-36),2016-053A,2026-06-09T03:23:47.702112,1.00270520,.0001908,0.0108,347.9197,348.5502,40.4980,0,U,41747,999,3587,0,-.7E-7,0
INTELSAT 32E (IS-32E),2017-007B,2026-06-09T02:04:35.550912,1.00274840,.0000672,0.0023,348.0424,336.8096,280.6014,0,U,41945,999,3414,0,-.252E-5,0
INTELSAT 35E (IS-35E),2017-041A,2026-06-09T04:33:04.283424,1.00269581,.0001624,0.0200,353.1978,84.8725,213.2858,0,U,42818,999,3273,0,0,0
INTELSAT 37E (IS-37E),2017-059A,2026-06-09T03:21:38.710368,1.00268430,.0002303,0.0194,353.6646,107.7787,188.4837,0,U,42950,999,3198,0,0,0
AZERSPACE 2 (IS-38),2018-074A,2026-06-09T01:34:27.475392,1.00271306,.0001318,0.0015,359.7084,78.7354,247.7297,0,U,43632,999,2836,0,.153E-5,0
HORIZONS-3E,2018-074B,2026-06-08T21:01:48.945216,1.00270722,.0000918,0.0027,268.1339,15.6450,97.9331,0,U,43633,999,2825,0,-.14E-6,0
AT&T T-16,2019-034A,2026-06-09T00:52:50.543904,1.00268770,.0000609,0.0211,62.4576,195.8851,271.4313,0,U,44333,999,2555,0,-.98E-6,0
INTELSAT 39 (IS-39),2019-049B,2026-06-09T00:09:47.202048,1.00266551,.0001156,0.0162,310.4453,11.0959,0.2561,0,U,44476,999,2504,0,.51E-6,0
GALAXY 30 (G-30),2020-056C,2026-06-09T02:28:40.348128,1.00273274,.0002183,0.0165,310.7901,122.4086,96.4532,0,U,46114,999,2121,0,.53E-6,0
GALAXY 33 (G-33),2022-128A,2026-06-09T02:26:25.564128,1.00271355,.000186,0.0128,309.1915,135.3365,76.5782,0,U,54026,999,1366,0,.96E-6,0
GALAXY 34 (G-34),2022-128B,2026-06-08T23:02:06.902304,1.00274719,.0001862,0.0154,329.7481,136.9348,7.2031,0,U,54027,999,1383,0,.75E-6,0
GALAXY 31 (G-31),2022-153A,2026-06-09T02:29:47.740128,1.00272090,.0001294,0.0146,269.0432,167.8099,97.0869,0,U,54243,999,705,0,.3E-6,0
GALAXY 32 (G-32),2022-153B,2026-06-08T23:12:58.360032,1.00271040,.0002186,0.0093,329.2269,68.0568,117.3143,0,U,54244,999,1306,0,-.158E-5,0
GALAXY 35 (G-35),2022-170A,2026-06-08T23:12:20.920320,1.00271292,.0002057,0.0311,101.0835,340.0049,71.2552,0,U,54741,999,1281,0,-.146E-5,0
GALAXY 36 (G-36),2022-170B,2026-06-09T02:38:53.126304,1.00270915,.0002665,0.0149,152.3398,290.7741,125.1041,0,U,54742,999,1269,0,-.168E-5,0
GALAXY 37 (G-37),2023-112A,2026-06-09T04:10:25.208832,1.00271768,.0001919,0.0183,350.8590,88.8371,113.4683,0,U,57493,999,1046,0,.65E-6,0
